[
  {
    "OBJECT_NAME": "STARLINK-3721",
    "OBJECT_ID": "22029AY",
    "EPOCH": "2025-11-11T05:37:14.454048",
    "MEAN_MOTION": 15.08838978,
    "ECCENTRICITY": 0.0001437,
    "INCLINATION": 53.2172,
    "RA_OF_ASC_NODE": 240.8863,
    "ARG_OF_PERICENTER": 88.5802,
    "MEAN_ANOMALY": 271.5355,
    "EPHEMERIS_TYPE": 0,
    "CLASSIFICATION_TYPE": "U",
    "NORAD_CAT_ID": 52134,
    "ELEMENT_SET_NO": 999,
    "REV_AT_EPOCH": 20305,
    "BSTAR": 0.00010534,
    "MEAN_MOTION_DOT": 1.389e-05,
    "MEAN_MOTION_DDOT": 0.0,
    "TLE_LINE1": "1 52134U 22029AY  25315.23419507  .00001389  00000+0  10534-3 0  9993",
    "TLE_LINE2": "2 52134  53.2172 240.8863 0001437  88.5802 271.5355 15.08838978203059",
    "COMMENT": "Grouped by shell and plane from TLE"
  },
  {
    "OBJECT_NAME": "STARLINK-3729",
    "OBJECT_ID": "22029AZ",
    "EPOCH": "2025-11-11T05:17:25.577088",
    "MEAN_MOTION": 15.08846518,
    "ECCENTRICITY": 0.0001415,
    "INCLINATION": 53.2167,
    "RA_OF_ASC_NODE": 240.9579,
    "ARG_OF_PERICENTER": 82.6785,
    "MEAN_ANOMALY": 277.4368,
    "EPHEMERIS_TYPE": 0,
    "CLASSIFICATION_TYPE": "U",
    "NORAD_CAT_ID": 52135,
    "ELEMENT_SET_NO": 999,
    "REV_AT_EPOCH": 20305,
    "BSTAR": 0.0,
    "MEAN_MOTION_DOT": -3.62e-06,
    "MEAN_MOTION_DDOT": 0.0,
    "TLE_LINE1": "1 52135U 22029AZ  25315.22043492 -.00000362  00000+0 -46514-5 0  9990",
    "TLE_LINE2": "2 52135  53.2167 240.9579 0001415  82.6785 277.4368 15.08846518203058",
    "COMMENT": "Grouped by shell and plane from TLE"
  },
  {
    "OBJECT_NAME": "STARLINK-3720",
    "OBJECT_ID": "22029BA",
    "EPOCH": "2025-11-11T02:15:52.575264",
    "MEAN_MOTION": 15.08836548,
    "ECCENTRICITY": 0.0001266,
    "INCLINATION": 53.218,
    "RA_OF_ASC_NODE": 241.5182,
    "ARG_OF_PERICENTER": 89.5352,
    "MEAN_ANOMALY": 270.5785,
    "EPHEMERIS_TYPE": 0,
    "CLASSIFICATION_TYPE": "U",
    "NORAD_CAT_ID": 52136,
    "ELEMENT_SET_NO": 999,
    "REV_AT_EPOCH": 20303,
    "BSTAR": 7.8652e-05,
    "MEAN_MOTION_DOT": 9.64e-06,
    "MEAN_MOTION_DDOT": 0.0,
    "TLE_LINE1": "1 52136U 22029BA  25315.09435851  .00000964  00000+0  78652-4 0  9993",
    "TLE_LINE2": "2 52136  53.2180 241.5182 0001266  89.5352 270.5785 15.08836548203038",
    "COMMENT": "Grouped by shell and plane from TLE"
  },
  {
    "OBJECT_NAME": "STARLINK-3733",
    "OBJECT_ID": "22029BB",
    "EPOCH": "2025-11-11T05:10:44.939424",
    "MEAN_MOTION": 15.08846085,
    "ECCENTRICITY": 0.0001436,
    "INCLINATION": 53.2182,
    "RA_OF_ASC_NODE": 240.9705,
    "ARG_OF_PERICENTER": 103.9546,
    "MEAN_ANOMALY": 256.1606,
    "EPHEMERIS_TYPE": 0,
    "CLASSIFICATION_TYPE": "U",
    "NORAD_CAT_ID": 52137,
    "ELEMENT_SET_NO": 999,
    "REV_AT_EPOCH": 20305,
    "BSTAR": 8.196000000000001e-05,
    "MEAN_MOTION_DOT": 1.017e-05,
    "MEAN_MOTION_DDOT": 0.0,
    "TLE_LINE1": "1 52137U 22029BB  25315.21579791  .00001017  00000+0  81960-4 0  9996",
    "TLE_LINE2": "2 52137  53.2182 240.9705 0001436 103.9546 256.1606 15.08846085203051",
    "COMMENT": "Grouped by shell and plane from TLE"
  },
  {
    "OBJECT_NAME": "STARLINK-3723",
    "OBJECT_ID": "22029BC",
    "EPOCH": "2025-11-11T03:45:57.608928",
    "MEAN_MOTION": 15.08837587,
    "ECCENTRICITY": 0.0001366,
    "INCLINATION": 53.2172,
    "RA_OF_ASC_NODE": 241.2348,
    "ARG_OF_PERICENTER": 85.8772,
    "MEAN_ANOMALY": 274.2376,
    "EPHEMERIS_TYPE": 0,
    "CLASSIFICATION_TYPE": "U",
    "NORAD_CAT_ID": 52138,
    "ELEMENT_SET_NO": 999,
    "REV_AT_EPOCH": 20304,
    "BSTAR": 8.3726e-05,
    "MEAN_MOTION_DOT": 1.045e-05,
    "MEAN_MOTION_DDOT": 0.0,
    "TLE_LINE1": "1 52138U 22029BC  25315.15691677  .00001045  00000+0  83726-4 0  9991",
    "TLE_LINE2": "2 52138  53.2172 241.2348 0001366  85.8772 274.2376 15.08837587203040",
    "COMMENT": "Grouped by shell and plane from TLE"
  },
  {
    "OBJECT_NAME": "STARLINK-3682",
    "OBJECT_ID": "22029BE",
    "EPOCH": "2025-11-11T05:05:26.781792",
    "MEAN_MOTION": 15.08851627,
    "ECCENTRICITY": 0.0001491,
    "INCLINATION": 53.216,
    "RA_OF_ASC_NODE": 240.9886,
    "ARG_OF_PERICENTER": 86.5436,
    "MEAN_ANOMALY": 273.5726,
    "EPHEMERIS_TYPE": 0,
    "CLASSIFICATION_TYPE": "U",
    "NORAD_CAT_ID": 52140,
    "ELEMENT_SET_NO": 999,
    "REV_AT_EPOCH": 20305,
    "BSTAR": 0.00031765,
    "MEAN_MOTION_DOT": 4.773e-05,
    "MEAN_MOTION_DDOT": 0.0,
    "TLE_LINE1": "1 52140U 22029BE  25315.21211553  .00004773  00000+0  31765-3 0  9998",
    "TLE_LINE2": "2 52140  53.2160 240.9886 0001491  86.5436 273.5726 15.08851627203050",
    "COMMENT": "Grouped by shell and plane from TLE"
  },
  {
    "OBJECT_NAME": "STARLINK-3870",
    "OBJECT_ID": "22049A",
    "EPOCH": "2025-11-11T05:00:07.982208",
    "MEAN_MOTION": 15.08855848,
    "ECCENTRICITY": 0.0001355,
    "INCLINATION": 53.217,
    "RA_OF_ASC_NODE": 241.0037,
    "ARG_OF_PERICENTER": 93.6058,
    "MEAN_ANOMALY": 266.5089,
    "EPHEMERIS_TYPE": 0,
    "CLASSIFICATION_TYPE": "U",
    "NORAD_CAT_ID": 52451,
    "ELEMENT_SET_NO": 999,
    "REV_AT_EPOCH": 19422,
    "BSTAR": 0.00021323000000000002,
    "MEAN_MOTION_DOT": 3.109e-05,
    "MEAN_MOTION_DDOT": 0.0,
    "TLE_LINE1": "1 52451U 22049A   25315.20842572  .00003109  00000+0  21323-3 0  9996",
    "TLE_LINE2": "2 52451  53.2170 241.0037 0001355  93.6058 266.5089 15.08855848194225",
    "COMMENT": "Grouped by shell and plane from TLE"
  },
  {
    "OBJECT_NAME": "STARLINK-3909",
    "OBJECT_ID": "22049B",
    "EPOCH": "2025-11-11T05:16:00.862752",
    "MEAN_MOTION": 15.08847677,
    "ECCENTRICITY": 0.0001279,
    "INCLINATION": 53.216,
    "RA_OF_ASC_NODE": 240.8301,
    "ARG_OF_PERICENTER": 92.1279,
    "MEAN_ANOMALY": 267.986,
    "EPHEMERIS_TYPE": 0,
    "CLASSIFICATION_TYPE": "U",
    "NORAD_CAT_ID": 52452,
    "ELEMENT_SET_NO": 999,
    "REV_AT_EPOCH": 19422,
    "BSTAR": 0.00017167,
    "MEAN_MOTION_DOT": 2.446e-05,
    "MEAN_MOTION_DDOT": 0.0,
    "TLE_LINE1": "1 52452U 22049B   25315.21945443  .00002446  00000+0  17167-3 0  9993",
    "TLE_LINE2": "2 52452  53.2160 240.8301 0001279  92.1279 267.9860 15.08847677194223",
    "COMMENT": "Grouped by shell and plane from TLE"
  },
  {
    "OBJECT_NAME": "STARLINK-3872",
    "OBJECT_ID": "22049C",
    "EPOCH": "2025-11-11T04:49:32.839392",
    "MEAN_MOTION": 15.08852169,
    "ECCENTRICITY": 0.0001432,
    "INCLINATION": 53.2164,
    "RA_OF_ASC_NODE": 241.0342,
    "ARG_OF_PERICENTER": 96.3972,
    "MEAN_ANOMALY": 263.7184,
    "EPHEMERIS_TYPE": 0,
    "CLASSIFICATION_TYPE": "U",
    "NORAD_CAT_ID": 52453,
    "ELEMENT_SET_NO": 999,
    "REV_AT_EPOCH": 19422,
    "BSTAR": 0.00026265,
    "MEAN_MOTION_DOT": 3.896e-05,
    "MEAN_MOTION_DDOT": 0.0,
    "TLE_LINE1": "1 52453U 22049C   25315.20107453  .00003896  00000+0  26265-3 0  9993",
    "TLE_LINE2": "2 52453  53.2164 241.0342 0001432  96.3972 263.7184 15.08852169194228",
    "COMMENT": "Grouped by shell and plane from TLE"
  },
  {
    "OBJECT_NAME": "STARLINK-3888",
    "OBJECT_ID": "22049D",
    "EPOCH": "2025-11-11T01:44:04.879680",
    "MEAN_MOTION": 15.08842029,
    "ECCENTRICITY": 0.0001451,
    "INCLINATION": 53.216,
    "RA_OF_ASC_NODE": 241.6149,
    "ARG_OF_PERICENTER": 90.1565,
    "MEAN_ANOMALY": 269.9593,
    "EPHEMERIS_TYPE": 0,
    "CLASSIFICATION_TYPE": "U",
    "NORAD_CAT_ID": 52454,
    "ELEMENT_SET_NO": 999,
    "REV_AT_EPOCH": 19420,
    "BSTAR": 0.00028523,
    "MEAN_MOTION_DOT": 4.255e-05,
    "MEAN_MOTION_DDOT": 0.0,
    "TLE_LINE1": "1 52454U 22049D   25315.07227870  .00004255  00000+0  28523-3 0  9994",
    "TLE_LINE2": "2 52454  53.2160 241.6149 0001451  90.1565 269.9593 15.08842029194201",
    "COMMENT": "Grouped by shell and plane from TLE"
  },
  {
    "OBJECT_NAME": "STARLINK-3890",
    "OBJECT_ID": "22049E",
    "EPOCH": "2025-11-11T04:45:40.070016",
    "MEAN_MOTION": 15.08811766,
    "ECCENTRICITY": 0.0001366,
    "INCLINATION": 53.2162,
    "RA_OF_ASC_NODE": 241.0485,
    "ARG_OF_PERICENTER": 87.4671,
    "MEAN_ANOMALY": 272.6477,
    "EPHEMERIS_TYPE": 0,
    "CLASSIFICATION_TYPE": "U",
    "NORAD_CAT_ID": 52455,
    "ELEMENT_SET_NO": 999,
    "REV_AT_EPOCH": 19422,
    "BSTAR": 0.0,
    "MEAN_MOTION_DOT": -2.938e-05,
    "MEAN_MOTION_DDOT": 0.0,
    "TLE_LINE1": "1 52455U 22049E   25315.19838044 -.00002938  00000+0 -16673-3 0  9990",
    "TLE_LINE2": "2 52455  53.2162 241.0485 0001366  87.4671 272.6477 15.08811766194221",
    "COMMENT": "Grouped by shell and plane from TLE"
  },
  {
    "OBJECT_NAME": "STARLINK-3896",
    "OBJECT_ID": "22049F",
    "EPOCH": "2025-11-11T04:40:19.355808",
    "MEAN_MOTION": 15.08850776,
    "ECCENTRICITY": 0.0001377,
    "INCLINATION": 53.2173,
    "RA_OF_ASC_NODE": 241.0642,
    "ARG_OF_PERICENTER": 105.57,
    "MEAN_ANOMALY": 254.5445,
    "EPHEMERIS_TYPE": 0,
    "CLASSIFICATION_TYPE": "U",
    "NORAD_CAT_ID": 52456,
    "ELEMENT_SET_NO": 999,
    "REV_AT_EPOCH": 19422,
    "BSTAR": 0.00016003,
    "MEAN_MOTION_DOT": 2.261e-05,
    "MEAN_MOTION_DDOT": 0.0,
    "TLE_LINE1": "1 52456U 22049F   25315.19466847  .00002261  00000+0  16003-3 0  9993",
    "TLE_LINE2": "2 52456  53.2173 241.0642 0001377 105.5700 254.5445 15.08850776194224",
    "COMMENT": "Grouped by shell and plane from TLE"
  },
  {
    "OBJECT_NAME": "STARLINK-3899",
    "OBJECT_ID": "22049G",
    "EPOCH": "2025-11-11T04:33:39.098304",
    "MEAN_MOTION": 15.08837207,
    "ECCENTRICITY": 0.0001249,
    "INCLINATION": 53.2174,
    "RA_OF_ASC_NODE": 241.0743,
    "ARG_OF_PERICENTER": 90.6224,
    "MEAN_ANOMALY": 269.4911,
    "EPHEMERIS_TYPE": 0,
    "CLASSIFICATION_TYPE": "U",
    "NORAD_CAT_ID": 52457,
    "ELEMENT_SET_NO": 999,
    "REV_AT_EPOCH": 19422,
    "BSTAR": 0.00039869,
    "MEAN_MOTION_DOT": 6.062e-05,
    "MEAN_MOTION_DDOT": 0.0,
    "TLE_LINE1": "1 52457U 22049G   25315.19003586  .00006062  00000+0  39869-3 0  9999",
    "TLE_LINE2": "2 52457  53.2174 241.0743 0001249  90.6224 269.4911 15.08837207194228",
    "COMMENT": "Grouped by shell and plane from TLE"
  }
]